STARLINK-35385          
1 65906U 25224AA  25308.51831623  .00110357  00000+0  19616-2 0  9999
2 65906  53.1602 233.9054 0001551  82.5858 277.5327 15.49349023  5670
STARLINK-35347          
1 65907U 25224AB  25308.77600527  .00100759  00000+0  17949-2 0  9997
2 65907  53.1603 232.6692 0001530  91.0031 269.1153 15.49332880  5713
STARLINK-35329          
1 65908U 25224AC  25308.51865981  .00104165  00000+0  18536-2 0  9995
2 65908  53.1612 233.9072 0001731  81.5437 278.5768 15.49345907  5683
STARLINK-35387          
1 65909U 25224AD  25308.06606894  .00078571  00000+0  14039-2 0  9997
2 65909  53.1608 236.0574 0001285 102.1805 257.9348 15.49362709  5575
STARLINK-35523          
1 65910U 25225A   25308.91668981  .00022799  00000+0  41719-3 0  9996
2 65910  53.1612  27.2047 0000916  93.7641  33.1895 15.49281110  5342
STARLINK-35160          
1 65911U 25225B   25308.91668981  .00025526  00000+0  46599-3 0  9999
2 65911  53.1609  27.2014 0000886  95.4855  33.3841 15.49279385  5293
STARLINK-35508          
1 65912U 25225C   25308.91668981  .00022334  00000+0  40886-3 0  9997
2 65912  53.1613  27.1960 0000882  90.1651  40.6210 15.49281707  5292
STARLINK-35472          
1 65913U 25225D   25308.91668981  .00025537  00000+0  46617-3 0  9994
2 65913  53.1612  27.1923 0000847  76.8173  55.8865 15.49280426  5338
STARLINK-35524          
1 65914U 25225E   25308.91668981  .00022497  00000+0  41177-3 0  9993
2 65914  53.1611  27.1885 0000891  92.9093  41.7127 15.49281848  5349
STARLINK-35539          
1 65915U 25225F   25308.91668981 -.00000678  00000+0 -69757-5 0  9999
2 65915  53.1612  27.8701 0001490  72.9543  81.7919 15.39614562  5298
STARLINK-35521          
1 65916U 25225G   25308.91668981  .00022262  00000+0  40760-3 0  9992
2 65916  53.1613  27.1798 0000885  73.6149  64.8415 15.49280302  5347
STARLINK-35478          
1 65917U 25225H   25308.91668981  .00025806  00000+0  47106-3 0  9991
2 65917  53.1613  27.1720 0000919  87.6345  54.6595 15.49276480  5296
