CCSDS_OMM_VERS = 2.0
CREATION_DATE  = 
ORIGINATOR     = 

OBJECT_NAME    = STARLINK-35385
OBJECT_ID      = 2025-224AA
CENTER_NAME    = EARTH
REF_FRAME      = TEME
TIME_SYSTEM    = UTC
MEAN_ELEMENT_THEORY = SGP/SGP4

EPOCH          = 2025-11-04T12:26:22.522272
MEAN_MOTION    = 15.49349023
ECCENTRICITY   = .0001551
INCLINATION    = 53.1602
RA_OF_ASC_NODE = 233.9054
ARG_OF_PERICENTER = 82.5858
MEAN_ANOMALY   = 277.5327

EPHEMERIS_TYPE = 0
CLASSIFICATION_TYPE = U
NORAD_CAT_ID   = 65906
ELEMENT_SET_NO = 999
REV_AT_EPOCH   = 567
BSTAR          = .19616E-2
MEAN_MOTION_DOT = .110357E-2
MEAN_MOTION_DDOT = 0

CCSDS_OMM_VERS = 2.0
CREATION_DATE  = 
ORIGINATOR     = 

OBJECT_NAME    = STARLINK-35347
OBJECT_ID      = 2025-224AB
CENTER_NAME    = EARTH
REF_FRAME      = TEME
TIME_SYSTEM    = UTC
MEAN_ELEMENT_THEORY = SGP/SGP4

EPOCH          = 2025-11-04T18:37:26.855328
MEAN_MOTION    = 15.49332880
ECCENTRICITY   = .00015303
INCLINATION    = 53.1603
RA_OF_ASC_NODE = 232.6692
ARG_OF_PERICENTER = 91.0031
MEAN_ANOMALY   = 269.1153

EPHEMERIS_TYPE = 0
CLASSIFICATION_TYPE = U
NORAD_CAT_ID   = 65907
ELEMENT_SET_NO = 999
REV_AT_EPOCH   = 571
BSTAR          = .17949122E-2
MEAN_MOTION_DOT = .100759E-2
MEAN_MOTION_DDOT = 0

CCSDS_OMM_VERS = 2.0
CREATION_DATE  = 
ORIGINATOR     = 

OBJECT_NAME    = STARLINK-35329
OBJECT_ID      = 2025-224AC
CENTER_NAME    = EARTH
REF_FRAME      = TEME
TIME_SYSTEM    = UTC
MEAN_ELEMENT_THEORY = SGP/SGP4

EPOCH          = 2025-11-04T12:26:52.207584
MEAN_MOTION    = 15.49345907
ECCENTRICITY   = .0001731
INCLINATION    = 53.1612
RA_OF_ASC_NODE = 233.9072
ARG_OF_PERICENTER = 81.5437
MEAN_ANOMALY   = 278.5768

EPHEMERIS_TYPE = 0
CLASSIFICATION_TYPE = U
NORAD_CAT_ID   = 65908
ELEMENT_SET_NO = 999
REV_AT_EPOCH   = 568
BSTAR          = .18536E-2
MEAN_MOTION_DOT = .104165E-2
MEAN_MOTION_DDOT = 0

CCSDS_OMM_VERS = 2.0
CREATION_DATE  = 
ORIGINATOR     = 

OBJECT_NAME    = STARLINK-35387
OBJECT_ID      = 2025-224AD
CENTER_NAME    = EARTH
REF_FRAME      = TEME
TIME_SYSTEM    = UTC
MEAN_ELEMENT_THEORY = SGP/SGP4

EPOCH          = 2025-11-04T01:35:08.356416
MEAN_MOTION    = 15.49362709
ECCENTRICITY   = .0001285
INCLINATION    = 53.1608
RA_OF_ASC_NODE = 236.0574
ARG_OF_PERICENTER = 102.1805
MEAN_ANOMALY   = 257.9348

EPHEMERIS_TYPE = 0
CLASSIFICATION_TYPE = U
NORAD_CAT_ID   = 65909
ELEMENT_SET_NO = 999
REV_AT_EPOCH   = 557
BSTAR          = .14039329E-2
MEAN_MOTION_DOT = .78571E-3
MEAN_MOTION_DDOT = 0

CCSDS_OMM_VERS = 2.0
CREATION_DATE  = 
ORIGINATOR     = 

OBJECT_NAME    = STARLINK-35523
OBJECT_ID      = 2025-225A
CENTER_NAME    = EARTH
REF_FRAME      = TEME
TIME_SYSTEM    = UTC
MEAN_ELEMENT_THEORY = SGP/SGP4

EPOCH          = 2025-11-04T22:00:01.999584
MEAN_MOTION    = 15.49281110
ECCENTRICITY   = .0000916
INCLINATION    = 53.1612
RA_OF_ASC_NODE = 27.2047
ARG_OF_PERICENTER = 93.7641
MEAN_ANOMALY   = 33.1895

EPHEMERIS_TYPE = 0
CLASSIFICATION_TYPE = U
NORAD_CAT_ID   = 65910
ELEMENT_SET_NO = 999
REV_AT_EPOCH   = 534
BSTAR          = .41719472E-3
MEAN_MOTION_DOT = .22799E-3
MEAN_MOTION_DDOT = 0

CCSDS_OMM_VERS = 2.0
CREATION_DATE  = 
ORIGINATOR     = 

OBJECT_NAME    = STARLINK-35160
OBJECT_ID      = 2025-225B
CENTER_NAME    = EARTH
REF_FRAME      = TEME
TIME_SYSTEM    = UTC
MEAN_ELEMENT_THEORY = SGP/SGP4

EPOCH          = 2025-11-04T22:00:01.999584
MEAN_MOTION    = 15.49279385
ECCENTRICITY   = .00008863
INCLINATION    = 53.1609
RA_OF_ASC_NODE = 27.2014
ARG_OF_PERICENTER = 95.4855
MEAN_ANOMALY   = 33.3841

EPHEMERIS_TYPE = 0
CLASSIFICATION_TYPE = U
NORAD_CAT_ID   = 65911
ELEMENT_SET_NO = 999
REV_AT_EPOCH   = 529
BSTAR          = .46598874E-3
MEAN_MOTION_DOT = .25526E-3
MEAN_MOTION_DDOT = 0

CCSDS_OMM_VERS = 2.0
CREATION_DATE  = 
ORIGINATOR     = 

OBJECT_NAME    = STARLINK-35508
OBJECT_ID      = 2025-225C
CENTER_NAME    = EARTH
REF_FRAME      = TEME
TIME_SYSTEM    = UTC
MEAN_ELEMENT_THEORY = SGP/SGP4

EPOCH          = 2025-11-04T22:00:01.999584
MEAN_MOTION    = 15.49281707
ECCENTRICITY   = .00008825
INCLINATION    = 53.1613
RA_OF_ASC_NODE = 27.1960
ARG_OF_PERICENTER = 90.1651
MEAN_ANOMALY   = 40.6210

EPHEMERIS_TYPE = 0
CLASSIFICATION_TYPE = U
NORAD_CAT_ID   = 65912
ELEMENT_SET_NO = 999
REV_AT_EPOCH   = 529
BSTAR          = .40886028E-3
MEAN_MOTION_DOT = .22334E-3
MEAN_MOTION_DDOT = 0

CCSDS_OMM_VERS = 2.0
CREATION_DATE  = 
ORIGINATOR     = 

OBJECT_NAME    = STARLINK-35472
OBJECT_ID      = 2025-225D
CENTER_NAME    = EARTH
REF_FRAME      = TEME
TIME_SYSTEM    = UTC
MEAN_ELEMENT_THEORY = SGP/SGP4

EPOCH          = 2025-11-04T22:00:01.999584
MEAN_MOTION    = 15.49280426
ECCENTRICITY   = .00008471
INCLINATION    = 53.1612
RA_OF_ASC_NODE = 27.1923
ARG_OF_PERICENTER = 76.8173
MEAN_ANOMALY   = 55.8865

EPHEMERIS_TYPE = 0
CLASSIFICATION_TYPE = U
NORAD_CAT_ID   = 65913
ELEMENT_SET_NO = 999
REV_AT_EPOCH   = 533
BSTAR          = .46616949E-3
MEAN_MOTION_DOT = .25537E-3
MEAN_MOTION_DDOT = 0

CCSDS_OMM_VERS = 2.0
CREATION_DATE  = 
ORIGINATOR     = 

OBJECT_NAME    = STARLINK-35524
OBJECT_ID      = 2025-225E
CENTER_NAME    = EARTH
REF_FRAME      = TEME
TIME_SYSTEM    = UTC
MEAN_ELEMENT_THEORY = SGP/SGP4

EPOCH          = 2025-11-04T22:00:01.999584
MEAN_MOTION    = 15.49281848
ECCENTRICITY   = .00008919
INCLINATION    = 53.1611
RA_OF_ASC_NODE = 27.1885
ARG_OF_PERICENTER = 92.9093
MEAN_ANOMALY   = 41.7127

EPHEMERIS_TYPE = 0
CLASSIFICATION_TYPE = U
NORAD_CAT_ID   = 65914
ELEMENT_SET_NO = 999
REV_AT_EPOCH   = 534
BSTAR          = .41177001E-3
MEAN_MOTION_DOT = .22497E-3
MEAN_MOTION_DDOT = 0

CCSDS_OMM_VERS = 2.0
CREATION_DATE  = 
ORIGINATOR     = 

OBJECT_NAME    = STARLINK-35539
OBJECT_ID      = 2025-225F
CENTER_NAME    = EARTH
REF_FRAME      = TEME
TIME_SYSTEM    = UTC
MEAN_ELEMENT_THEORY = SGP/SGP4

EPOCH          = 2025-11-04T22:00:01.999584
MEAN_MOTION    = 15.39614562
ECCENTRICITY   = .00014904
INCLINATION    = 53.1612
RA_OF_ASC_NODE = 27.8701
ARG_OF_PERICENTER = 72.9543
MEAN_ANOMALY   = 81.7919

EPHEMERIS_TYPE = 0
CLASSIFICATION_TYPE = U
NORAD_CAT_ID   = 65915
ELEMENT_SET_NO = 999
REV_AT_EPOCH   = 529
BSTAR          = -.6975704E-5
MEAN_MOTION_DOT = -.678E-5
MEAN_MOTION_DDOT = 0

CCSDS_OMM_VERS = 2.0
CREATION_DATE  = 
ORIGINATOR     = 

OBJECT_NAME    = STARLINK-35521
OBJECT_ID      = 2025-225G
CENTER_NAME    = EARTH
REF_FRAME      = TEME
TIME_SYSTEM    = UTC
MEAN_ELEMENT_THEORY = SGP/SGP4

EPOCH          = 2025-11-04T22:00:01.999584
MEAN_MOTION    = 15.49280302
ECCENTRICITY   = .0000885
INCLINATION    = 53.1613
RA_OF_ASC_NODE = 27.1798
ARG_OF_PERICENTER = 73.6149
MEAN_ANOMALY   = 64.8415

EPHEMERIS_TYPE = 0
CLASSIFICATION_TYPE = U
NORAD_CAT_ID   = 65916
ELEMENT_SET_NO = 999
REV_AT_EPOCH   = 534
BSTAR          = .40759632E-3
MEAN_MOTION_DOT = .22262E-3
MEAN_MOTION_DDOT = 0

CCSDS_OMM_VERS = 2.0
CREATION_DATE  = 
ORIGINATOR     = 

OBJECT_NAME    = STARLINK-35478
OBJECT_ID      = 2025-225H
CENTER_NAME    = EARTH
REF_FRAME      = TEME
TIME_SYSTEM    = UTC
MEAN_ELEMENT_THEORY = SGP/SGP4

EPOCH          = 2025-11-04T22:00:01.999584
MEAN_MOTION    = 15.49276480
ECCENTRICITY   = .00009195
INCLINATION    = 53.1613
RA_OF_ASC_NODE = 27.1720
ARG_OF_PERICENTER = 87.6345
MEAN_ANOMALY   = 54.6595

EPHEMERIS_TYPE = 0
CLASSIFICATION_TYPE = U
NORAD_CAT_ID   = 65917
ELEMENT_SET_NO = 999
REV_AT_EPOCH   = 529
BSTAR          = .4710572E-3
MEAN_MOTION_DOT = .25806E-3
MEAN_MOTION_DDOT = 0

